KUIPER-00071            
1 64818U 25151C   25231.97271510  .00017967  00000+0  74565-3 0  9995
2 64818  51.8863 121.1645 0003917 263.8485  96.2050 15.23902750  5300
KUIPER-00072            
1 64819U 25151D   25231.95847824  .00035326  00000+0  10030-2 0  9996
2 64819  51.8789 120.3746 0004817 278.5295  81.5146 15.35854693  5323
KUIPER-00073            
1 64820U 25151E   25231.90224619  .00020758  00000+0  85483-3 0  9992
2 64820  51.8850 121.5265 0008565 289.0266  70.9787 15.24045275  6489
KUIPER-00074            
1 64821U 25151F   25231.95525573  .00028734  00000+0  81714-3 0  9996
2 64821  51.8785 120.3541 0004834 279.1702  80.8737 15.35909876  5326
KUIPER-00075            
1 64822U 25151G   25231.94852316  .00028897  00000+0  80039-3 0  9993
2 64822  51.8795 120.3188 0004465 263.7889  96.2588 15.36731526  5321
KUIPER-00076            
1 64823U 25151H   25231.95786389  .00017883  00000+0  51504-3 0  9999
2 64823  51.8782 120.3702 0005022 267.4510  92.5901 15.35808400  5325
KUIPER-00077            
1 64824U 25151J   25231.96040593  .00035451  00000+0  10079-2 0  9993
2 64824  51.8802 120.3964 0005955 264.9410  95.0896 15.35806341  5317
KUIPER-00078            
1 64825U 25151K   25231.95971954  .00030413  00000+0  86626-3 0  9992
2 64825  51.8771 120.3843 0005993 261.5206  98.5101 15.35824393  5322
